CAS-2T & KS-1Q          
1 41847U 16066G   20263.13558841  .00000022  00000-0  14637-4 0  9990
2 41847  98.6447 314.5470 0364727 309.8674  47.0954 14.38091014202884
NAYIF-1 (EO-88)         
1 42017U 17008BX  20262.42884626  .00001160  00000-0  46876-4 0  9995
2 42017  97.3522 328.6082 0006126   9.9556 350.1803 15.26734909199737
MAX VALIER SAT          
1 42778U 17036P   20262.65821443  .00000674  00000-0  31733-4 0  9998
2 42778  97.2961 313.6772 0013589  59.3776 300.8799 15.22765993179918
RADFXSAT (FOX-1B)       
1 43017U 17073E   20262.48390840  .00000359  00000-0  32771-4 0  9992
2 43017  97.7158 171.1103 0258097 107.1064 255.8587 14.79015325152913
FOX-1D (AO-92)          
1 43137U 18004AC  20263.16702961  .00000710  00000-0  31960-4 0  9997
2 43137  97.4387 333.6662 0010816  87.5503 272.6972 15.24283884149319
DIWATA-2B               
1 43678U 18084H   20263.11999804  .00000261  00000-0  31649-4 0  9999
2 43678  97.8936  21.5740 0008799 221.8005 138.2519 14.91653951102985
ES'HAIL 2               
1 43700U 18090A   20262.28209291  .00000130  00000-0  00000-0 0  9991
2 43700   0.0164 152.8630 0001850  47.8378 284.3103  1.00272613  6888
FOX-1CLIFF (AO-95)      
1 43770U 18099N   20263.14425340  .00000642  00000-0  63821-4 0  9990
2 43770  97.6987 332.8596 0013251 240.8989 119.0906 14.95041423 97912
ITASAT 1                
1 43786U 18099AE  20262.45102208 -.00000201  00000-0 -12997-4 0  9996
2 43786  97.7005 332.6653 0014007 237.1727 122.8146 14.95372071 97837
JY1SAT (JO-97)          
1 43803U 18099AX  20262.45426377 -.00000059  00000-0 -81251-7 0  9995
2 43803  97.6964 332.4660 0013996 237.2424 122.7449 14.95558295 97836
PSAT2 (NO-104)          
1 44354U 19036R   20262.93800318  .00005936  00000-0  81741-4 0  9991
2 44354  28.5323 125.9320 0357375 230.6178 126.2240 15.05213616 67903
BRICSAT2 (NO-103)       
1 44355U 19036S   20262.96423435  .00010091  00000-0  13309-3 0  9998
2 44355  28.5313 111.4606 0330170 254.1791 102.2169 15.12149959 68053
JAISAT-1                
1 44419U 19038F   20262.41930054  .00000607  00000-0  38026-4 0  9997
2 44419  97.5482 222.9794 0021765 166.0270 194.1568 15.12913872 66653
DUCHIFAT-3              
1 44854U 19089C   20263.07715766  .00000329  00000-0  33019-4 0  9998
2 44854  36.9656 265.0328 0007487  95.5485 264.6117 14.99127427 42357
RS-44 & BREEZE-KM R/B   
1 44909U 19096E   20262.55227744  .00000034  00000-0  91138-4 0  9992
2 44909  82.5182 293.4573 0217512   9.1593 351.3377 12.79708166 34094
ORBITAL FACTORY 2 (OF-2)
1 45113U 19071C   20263.13056309  .00001031  00000-0  42670-4 0  9990
2 45113  51.6435 270.9220 0013322  36.7229 323.4663 15.33657460 35502
HUSKYSAT-1              
1 45119U 19071J   20263.03122849  .00001491  00000-0  56241-4 0  9997
2 45119  51.6429 271.0093 0012584  33.2169 326.9600 15.33852315 35487
